     2.10           G: GLONASS NAV DATA                     RINEX VERSION / TYPE
teqc  2015Jun23                         20210407 03:07:34UTCPGM / RUN BY / DATE
Linux 2.4.21-27.ELsmp|Opteron|gcc -static|Linux x86_64|=+   COMMENT
  2021     2    13   -4.656612873077D-10                    CORR TO SYSTEM TIME
                                                            END OF HEADER
 2 21  2 14 11 15  0.0 4.669660702348D-04 9.094947017729D-13 3.960000000000D+04
   -1.404700292969D+04-2.706577301025D+00 0.000000000000D+00 0.000000000000D+00
    7.923840820312D+03-1.852998733521D-01-9.313225746155D-10-4.000000000000D+00
   -1.974449853516D+04 1.841785430908D+00 1.862645149231D-09 0.000000000000D+00
12 21  2 14 11 15  0.0 2.049170434475D-04 2.728484105319D-12 3.960000000000D+04
   -1.660060546875D+04 1.421625137329D+00 0.000000000000D+00 0.000000000000D+00
    9.595075195312D+03-1.818954467773D+00-1.862645149231D-09-1.000000000000D+00
   -1.681761816406D+04-2.435465812683D+00 1.862645149231D-09 0.000000000000D+00
13 21  2 14 11 15  0.0-5.070585757494D-05-0.000000000000D+00 3.960000000000D+04
   -1.497107958984D+04 2.209529876709D-01 9.313225746155D-10 0.000000000000D+00
    2.062305078125D+04-4.349327087402D-02-1.862645149231D-09-2.000000000000D+00
   -1.201710937500D+03-3.561944961548D+00 0.000000000000D+00 0.000000000000D+00
14 21  2 14 11 15  0.0 6.097462028265D-05 0.000000000000D+00 3.960000000000D+04
   -4.460319335938D+03-1.163635253906D+00 9.313225746155D-10 0.000000000000D+00
    1.952180908203D+04 1.825297355652D+00-9.313225746155D-10-7.000000000000D+00
    1.580202050781D+04-2.584888458252D+00-1.862645149231D-09 0.000000000000D+00
17 21  2 14 11 15  0.0 3.999928012490D-04 2.728484105319D-12 3.960000000000D+04
    6.849793457031D+03-2.231464385986D-01 3.725290298462D-09 0.000000000000D+00
    2.343609326172D+04-1.017088890076D+00 9.313225746155D-10 4.000000000000D+00
    7.454497558594D+03 3.405913352966D+00-1.862645149231D-09 0.000000000000D+00
18 21  2 14 11 15  0.0 6.660539656878D-05 0.000000000000D+00 3.960000000000D+04
    1.334879345703D+04 7.279119491577D-01 4.656612873077D-09 0.000000000000D+00
    1.950406787109D+04 1.107773780823D+00 1.862645149231D-09-3.000000000000D+00
   -9.500871582031D+03 3.294970512390D+00 0.000000000000D+00 0.000000000000D+00
 3 21  2 14 11 15  0.0 3.081280738115D-05-0.000000000000D+00 4.059000000000D+04
    4.908973144531D+03-3.056183815002D+00 2.793967723846D-09 0.000000000000D+00
    1.115204248047D+04-3.314342498779D-01 9.313225746155D-10 5.000000000000D+00
   -2.236065234375D+04-8.395900726318D-01 1.862645149231D-09 0.000000000000D+00
 2 21  2 14 11 45  0.0 4.669679328799D-04 9.094947017729D-13 4.140000000000D+04
   -1.845696435547D+04-2.152164459229D+00-9.313225746155D-10 0.000000000000D+00
    7.952159667969D+03 1.923551559448D-01-1.862645149231D-09-4.000000000000D+00
   -1.570805224609D+04 2.613819122314D+00 1.862645149231D-09 0.000000000000D+00
14 21  2 14 11 45  0.0 6.097462028265D-05 0.000000000000D+00 4.140000000000D+04
   -6.003162109375D+03-5.631532669067D-01 9.313225746155D-10 0.000000000000D+00
    2.241094042969D+04 1.342205047607D+00-1.862645149231D-09-7.000000000000D+00
    1.059844042969D+04-3.159350395203D+00-9.313225746155D-10 0.000000000000D+00
 3 21  2 14 11 45  0.0 3.081280738115D-05 0.000000000000D+00 4.140000000000D+04
   -7.285498046875D+02-3.156080245972D+00 1.862645149231D-09 0.000000000000D+00
    1.095575732422D+04 1.189002990723D-01-0.000000000000D+00 5.000000000000D+00
   -2.298387792969D+04 1.514949798584D-01 1.862645149231D-09 0.000000000000D+00
12 21  2 14 11 45  0.0 2.049217000604D-04 2.728484105319D-12 4.140000000000D+04
   -1.404687646484D+04 1.373738288879D+00-0.000000000000D+00 0.000000000000D+00
    5.729149902344D+03-2.452700614929D+00-9.313225746155D-10-1.000000000000D+00
   -2.049422314453D+04-1.623018264771D+00 2.793967723846D-09 0.000000000000D+00
13 21  2 14 11 45  0.0-5.070678889751D-05-0.000000000000D+00 4.140000000000D+04
   -1.419782568359D+04 5.988225936890D-01 0.000000000000D+00 0.000000000000D+00
    1.983826660156D+04-8.405742645264D-01-1.862645149231D-09-2.000000000000D+00
   -7.483996093750D+03-3.373094558716D+00 9.313225746155D-10 0.000000000000D+00
17 21  2 14 11 45  0.0 3.999993205070D-04 2.728484105319D-12 4.140000000000D+04
    5.954249511719D+03-7.940063476562D-01 2.793967723846D-09 0.000000000000D+00
    2.101422998047D+04-1.635212898254D+00-0.000000000000D+00 4.000000000000D+00
    1.321863281250D+04 2.957208633423D+00-1.862645149231D-09 0.000000000000D+00
18 21  2 14 11 45  0.0 6.660632789135D-05 0.000000000000D+00 4.140000000000D+04
    1.443490136719D+04 4.357414245605D-01 4.656612873077D-09 0.000000000000D+00
    2.073367822266D+04 2.643699645996D-01 9.313225746155D-10-3.000000000000D+00
   -3.278035644531D+03 3.574194908142D+00-9.313225746155D-10 0.000000000000D+00
24 21  2 14 11 45  0.0 3.150478005409D-05 1.818989403546D-12 4.140000000000D+04
   -6.558605957031D+03-1.554044723511D+00-9.313225746155D-10 0.000000000000D+00
    9.753386718750D+03-2.679808616638D+00-9.313225746155D-10 2.000000000000D+00
    2.266195507812D+04 7.034835815430D-01-1.862645149231D-09 0.000000000000D+00
15 21  2 14 11 45  0.0 1.054154708982D-04-0.000000000000D+00 4.248000000000D+04
    5.528852539062D+03-1.357563972473D+00 9.313225746155D-10 0.000000000000D+00
    1.190616796875D+04 2.667228698730D+00-0.000000000000D+00 0.000000000000D+00
    2.188616064453D+04-1.108008384705D+00-2.793967723846D-09 0.000000000000D+00
 2 21  2 14 12 15  0.0 4.669707268476D-04 9.094947017729D-13 4.320000000000D+04
   -2.167138281250D+04-1.393099784851D+00-1.862645149231D-09 0.000000000000D+00
    8.504889160156D+03 3.854551315308D-01-1.862645149231D-09-4.000000000000D+00
   -1.045692871094D+04 3.182762145996D+00 1.862645149231D-09 0.000000000000D+00
 3 21  2 14 12 15  0.0 3.081280738115D-05 0.000000000000D+00 4.320000000000D+04
   -6.266938964844D+03-2.947603225708D+00 9.313225746155D-10 0.000000000000D+00
    1.156733642578D+04 5.481185913086D-01-9.313225746155D-10 5.000000000000D+00
   -2.182292529297D+04 1.129864692688D+00 1.862645149231D-09 0.000000000000D+00
13 21  2 14 12 15  0.0-5.070772022009D-05-0.000000000000D+00 4.320000000000D+04
   -1.296570654297D+04 7.275619506836D-01 0.000000000000D+00 0.000000000000D+00
    1.758758740234D+04-1.653120040894D+00-1.862645149231D-09-2.000000000000D+00
   -1.318823095703D+04-2.923884391785D+00 1.862645149231D-09 0.000000000000D+00
14 21  2 14 12 15  0.0 6.097555160522D-05 0.000000000000D+00 4.320000000000D+04
   -6.561925781250D+03-8.557605743408D-02 9.313225746155D-10 0.000000000000D+00
    2.421859863281D+04 6.351318359375D-01-1.862645149231D-09-7.000000000000D+00
    4.575259277344D+03-3.489615440369D+00-0.000000000000D+00 0.000000000000D+00
15 21  2 14 12 15  0.0 1.054154708982D-04-0.000000000000D+00 4.320000000000D+04
    3.561263671875D+03-8.260545730591D-01 9.313225746155D-10 0.000000000000D+00
    1.657870068359D+04 2.474923133850D+00-9.313225746155D-10 0.000000000000D+00
    1.907278515625D+04-1.997720718384D+00-1.862645149231D-09 0.000000000000D+00
17 21  2 14 12 15  0.0 4.000058397651D-04 2.728484105319D-12 4.320000000000D+04
    3.942503906250D+03-1.445700645447D+00 9.313225746155D-10 0.000000000000D+00
    1.770638281250D+04-1.993035316467D+00-9.313225746155D-10 4.000000000000D+00
    1.796328125000D+04 2.280479431152D+00-1.862645149231D-09 0.000000000000D+00
18 21  2 14 12 15  0.0 6.660819053650D-05 0.000000000000D+00 4.320000000000D+04
    1.477453466797D+04-9.317684173584D-02 4.656612873077D-09 0.000000000000D+00
    2.051178027344D+04-4.863653182983D-01 0.000000000000D+00-3.000000000000D+00
    3.199292480469D+03 3.575926780701D+00-9.313225746155D-10 0.000000000000D+00
17 21  2 14 12 45  0.0 4.000123590231D-04 2.728484105319D-12 4.500000000000D+04
    7.682998046875D+02-2.066459655762D+00-0.000000000000D+00 0.000000000000D+00
    1.401326904297D+04-2.062506675720D+00-9.313225746155D-10 4.000000000000D+00
    2.132251464844D+04 1.427797317505D+00-1.862645149231D-09 0.000000000000D+00
 2 21  2 14 12 45  0.0 4.669744521379D-04 1.818989403546D-12 4.500000000000D+04
   -2.341022509766D+04-5.313444137573D-01-3.725290298462D-09 0.000000000000D+00
    9.196856933594D+03 3.417844772339D-01-1.862645149231D-09-4.000000000000D+00
   -4.398324218750D+03 3.505326271057D+00 9.313225746155D-10 0.000000000000D+00
 3 21  2 14 12 45  0.0 3.081280738115D-05 0.000000000000D+00 4.500000000000D+04
   -1.117351855469D+04-2.463187217712D+00-0.000000000000D+00 0.000000000000D+00
    1.285401171875D+04 8.531198501587D-01-1.862645149231D-09 5.000000000000D+00
   -1.896974951172D+04 2.019503593445D+00 1.862645149231D-09 0.000000000000D+00
13 21  2 14 12 45  0.0-5.070772022009D-05-0.000000000000D+00 4.500000000000D+04
   -1.172697021484D+04 6.104974746704D-01-0.000000000000D+00 0.000000000000D+00
    1.394662207031D+04-2.366784095764D+00-1.862645149231D-09-2.000000000000D+00
   -1.787437646484D+04-2.249249458313D+00 1.862645149231D-09 0.000000000000D+00
14 21  2 14 12 45  0.0 6.097648292780D-05 0.000000000000D+00 4.500000000000D+04
   -6.431839843750D+03 1.922788619995D-01 0.000000000000D+00 0.000000000000D+00
    2.461383593750D+04-2.104320526123D-01-1.862645149231D-09-7.000000000000D+00
   -1.801818359375D+03-3.549991607666D+00 0.000000000000D+00 0.000000000000D+00
15 21  2 14 12 45  0.0 1.054136082530D-04-0.000000000000D+00 4.500000000000D+04
    2.531765136719D+03-3.330183029175D-01 9.313225746155D-10 0.000000000000D+00
    2.064389746094D+04 1.997476577759D+00-9.313225746155D-10 0.000000000000D+00
    1.478703906250D+04-2.733376502991D+00-1.862645149231D-09 0.000000000000D+00
18 21  2 14 12 45  0.0 6.661005318165D-05 9.094947017729D-13 4.500000000000D+04
    1.399877343750D+04-7.888345718384D-01 2.793967723846D-09 0.000000000000D+00
    1.909863281250D+04-1.045161247253D+00-0.000000000000D+00-3.000000000000D+00
    9.428479003906D+03 3.300354957581D+00-1.862645149231D-09 0.000000000000D+00
